COSMOS 2433 (720)       
1 32275U 07052A   22318.29929906 -.00000066  00000+0  00000+0 0  9996
2 32275  66.0704 359.6998 0004719 237.4193 140.1893  2.13104201117169
COSMOS 2432 (719)       
1 32276U 07052B   22318.81576235 -.00000064  00000+0  00000+0 0  9996
2 32276  66.0854 359.7864 0009708 314.1027  47.5972  2.13103322117173
COSMOS 2434 (721)       
1 32393U 07065A   22318.59210927 -.00000003  00000+0  00000+0 0  9991
2 32393  64.3636 236.3036 0001664  71.8970  60.4230  2.13103119115870
COSMOS 2436 (723)       
1 32395U 07065C   22318.38742484 -.00000002  00000+0  00000+0 0  9997
2 32395  64.3727 236.3695 0015913 357.0178 114.0272  2.13102804115800
COSMOS 2456 (730)       
1 36111U 09070A   22318.60990902  .00000069  00000+0  00000+0 0  9992
2 36111  64.3940 115.8970 0001346 341.1636 328.2996  2.13099106100538
COSMOS 2457 (733)       
1 36112U 09070B   22319.13891971  .00000075  00000+0  00000+0 0  9995
2 36112  64.3781 115.7511 0006747 149.1349 334.6453  2.13101316100557
COSMOS 2461 (735)       
1 36401U 10007B   22318.54312214 -.00000064  00000+0  00000+0 0  9999
2 36401  65.9544 358.5086 0018427   2.0210  59.8425  2.13103646 98894
COSMOS 2460 (732)       
1 36402U 10007C   22318.54901566 -.00000064  00000+0  00000+0 0  9994
2 36402  65.9406 358.4559 0001960 230.5257 145.7460  2.13106363 98892
COSMOS 2464 (736)       
1 37139U 10041C   22319.14185141 -.00000006  00000+0  00000+0 0  9996
2 37139  63.9632 235.2865 0029804   8.9821  42.2118  2.13100848 94969
COSMOS 2476 (744)       
1 37867U 11064A   22318.09591735  .00000066  00000+0  00000+0 0  9998
2 37867  64.6797 117.3288 0020625 229.9198 311.9997  2.13101756 85870
COSMOS 2477 (745)       
1 37868U 11064B   22318.80434375  .00000074  00000+0  00000+0 0  9993
2 37868  64.6875 117.3710 0017922 229.9758 313.4677  2.13101610 85844
COSMOS 2475 (743)       
1 37869U 11064C   22318.67993326  .00000072  00000+0  00000+0 0  9993
2 37869  64.6941 117.3852 0021490 250.0623 156.1232  2.13101857 85850
COSMOS 2485 (747)       
1 39155U 13019A   22318.05034894  .00000066  00000+0  00000+0 0  9996
2 39155  64.8420 117.7910 0021254 225.8962 325.4705  2.13101804 74347
COSMOS 2492 (754)       
1 39620U 14012A   22319.23784255 -.00000060  00000+0  00000+0 0  9996
2 39620  65.8266 358.0931 0012811 312.8459 103.8563  2.13103168 67328
COSMOS 2500 (755)       
1 40001U 14032A   22318.41397714 -.00000065  00000+0  00000+0 0  9997
2 40001  65.7658 357.9703 0008214 210.0662 152.8240  2.13102290 65520
COSMOS 2501 (702K)      
1 40315U 14075A   22318.89290331 -.00000005  00000+0  00000+0 0  9995
2 40315  63.6694 235.9055 0018256 210.1416 328.9000  2.13101300 61937
COSMOS 2514 (751)       
1 41330U 16008A   22318.63945226 -.00000064  00000+0  00000+0 0  9998
2 41330  65.5644 357.6170 0012203 218.5789 141.3960  2.13102773 52692
COSMOS 2516 (753)       
1 41554U 16032A   22316.88518388  .00000007  00000+0  00000+0 0  9999
2 41554  63.8951 236.2948 0014339 214.8103 145.1330  2.13106373 50262
COSMOS 2522 (752)       
1 42939U 17055A   22318.64378399 -.00000003  00000+0  00000+0 0  9992
2 42939  64.1291 236.6717 0008070 246.5083 236.9307  2.13102092 40056
COSMOS 2527 (756)       
1 43508U 18053A   22318.22954834  .00000068  00000+0  00000+0 0  9992
2 43508  65.0046 117.8157 0007488 212.0599 345.6257  2.13102447 34337
COSMOS 2529 (757)       
1 43687U 18086A   22318.62430905 -.00000003  00000+0  00000+0 0  9998
2 43687  64.3447 237.0287 0010021 269.1020 154.8985  2.13102123 31369
COSMOS 2534 (758)       
1 44299U 19030A   22318.66618425 -.00000003  00000+0  00000+0 0  9997
2 44299  64.4161 236.9259 0012827 286.9815 303.5769  2.13101832 27000
COSMOS 2544 (759)       
1 44850U 19088A   22319.05079277  .00000078  00000+0  16595+1 0  9991
2 44850  64.9893 117.6379 0010734 249.3064 261.7506  2.13102312 22780
COSMOS 2545 (760)       
1 45358U 20018A   22318.64826431 -.00000065  00000+0  00000+0 0  9996
2 45358  64.9044 358.1022 0011135 243.7429 167.7966  2.13102602 20738
COSMOS 2547 (705K)      
1 46805U 20075A   22318.59521781 -.00000002  00000+0  00000+0 0  9992
2 46805  64.6418 236.3968 0007430 247.0440 337.2734  2.13102896 15979
COSMOS 2557 (706K)      
1 52984U 22075A   22318.54529691 -.00000068  00000+0  10000-3 0  9999
2 52984  64.8094   0.2990 0013055 277.0880 146.3944  2.13101835  2778
